{"type": "FeatureCollection", "features": [ {"type": "Feature", "properties": {"norad_id": 34610, "name": "COSMOS 2251 DEB", "group": "cosmos-2251-debris", "lat": -72.68965898872888, "lon": 144.91938735187725, "alt_km": 949.4258368378842, "timestamp": "2025-12-15T04:01:20.846729+00:00", "meta": {"OBJECT_NAME": "COSMOS 2251 DEB", "OBJECT_ID": "1993-036WF", "EPOCH": "2025-12-14T04:35:22.335072", "MEAN_MOTION": 14.07070245, "ECCENTRICITY": 0.01802619, "INCLINATION": 74.0181, "RA_OF_ASC_NODE": 259.7735, "ARG_OF_PERICENTER": 30.0652, "MEAN_ANOMALY": 331.0686, "EPHEMERIS_TYPE": 0, "CLASSIFICATION_TYPE": "U", "NORAD_CAT_ID": 34610, "ELEMENT_SET_NO": 999, "REV_AT_EPOCH": 85580, "BSTAR": 0.0020281044, "MEAN_MOTION_DOT": 3.908e-05, "MEAN_MOTION_DDOT": 0}, "tle": {"line1": "1 34610U 93036WF  25348.19123073  .00003908  00000+0  20281-2 0  9997", "line2": "2 34610  74.0181 259.7735 0180261  30.0652 331.0686 14.07070245855802"}}, "geometry": {"type": "Point", "coordinates": [144.91938735187725, -72.68965898872888]}}, {"type": "Feature", "properties": {"norad_id": 34611, "name": "COSMOS 2251 DEB", "group": "cosmos-2251-debris", "lat": 33.03267202813068, "lon": -94.44759414319478, "alt_km": 644.3423600790356, "timestamp": "2025-12-15T04:01:20.846739+00:00", "meta": {"OBJECT_NAME": "COSMOS 2251 DEB", "OBJECT_ID": "1993-036WG", "EPOCH": "2025-12-13T11:03:22.021920", "MEAN_MOTION": 14.69535859, "ECCENTRICITY": 0.00224968, "INCLINATION": 74.0524, "RA_OF_ASC_NODE": 99.57, "ARG_OF_PERICENTER": 141.0346, "MEAN_ANOMALY": 337.6538, "EPHEMERIS_TYPE": 0, "CLASSIFICATION_TYPE": "U", "NORAD_CAT_ID": 34611, "ELEMENT_SET_NO": 999, "REV_AT_EPOCH": 88401, "BSTAR": 0.0027082771, "MEAN_MOTION_DOT": 0.00016142, "MEAN_MOTION_DDOT": 0}, "tle": {"line1": "1 34611U 93036WG  25347.46067155  .00016142  00000+0  27083-2 0  9996", "line2": "2 34611  74.0524  99.5700 0022496 141.0346 337.6538 14.69535859884012"}}, "geometry": {"type": "Point", "coordinates": [-94.44759414319478, 33.03267202813068]}}, {"type": "Feature", "properties": {"norad_id": 34613, "name": "COSMOS 2251 DEB", "group": "cosmos-2251-debris", "lat": -35.47310091721698, "lon": 105.97166534899776, "alt_km": 838.0282857039174, "timestamp": "2025-12-15T04:01:20.846749+00:00", "meta": {"OBJECT_NAME": "COSMOS 2251 DEB", "OBJECT_ID": "1993-036WJ", "EPOCH": "2025-12-14T05:49:39.185760", "MEAN_MOTION": 14.26445971, "ECCENTRICITY": 0.01102265, "INCLINATION": 73.9633, "RA_OF_ASC_NODE": 275.8234, "ARG_OF_PERICENTER": 107.2372, "MEAN_ANOMALY": 41.5313, "EPHEMERIS_TYPE": 0, "CLASSIFICATION_TYPE": "U", "NORAD_CAT_ID": 34613, "ELEMENT_SET_NO": 999, "REV_AT_EPOCH": 86484, "BSTAR": 0.00147269, "MEAN_MOTION_DOT": 3.756e-05, "MEAN_MOTION_DDOT": 0}, "tle": {"line1": "1 34613U 93036WJ  25348.24281465  .00003756  00000+0  14727-2 0  9995", "line2": "2 34613  73.9633 275.8234 0110226 107.2372  41.5313 14.26445971864845"}}, "geometry": {"type": "Point", "coordinates": [105.97166534899776, -35.47310091721698]}}, {"type": "Feature", "properties": {"norad_id": 34614, "name": "COSMOS 2251 DEB", "group": "cosmos-2251-debris", "lat": 51.71609629010967, "lon": 1.0101334620283506, "alt_km": 805.481536209817, "timestamp": "2025-12-15T04:01:20.846759+00:00", "meta": {"OBJECT_NAME": "COSMOS 2251 DEB", "OBJECT_ID": "1993-036WK", "EPOCH": "2025-12-14T00:55:57.416736", "MEAN_MOTION": 14.17553969, "ECCENTRICITY": 0.01974833, "INCLINATION": 73.8797, "RA_OF_ASC_NODE": 341.5466, "ARG_OF_PERICENTER": 335.2307, "MEAN_ANOMALY": 79.3744, "EPHEMERIS_TYPE": 0, "CLASSIFICATION_TYPE": "U", "NORAD_CAT_ID": 34614, "ELEMENT_SET_NO": 999, "REV_AT_EPOCH": 84785, "BSTAR": 0.006469136, "MEAN_MOTION_DOT": 0.00015925, "MEAN_MOTION_DDOT": 0}, "tle": {"line1": "1 34614U 93036WK  25348.03885899  .00015925  00000+0  64691-2 0  9990", "line2": "2 34614  73.8797 341.5466 0197483 335.2307  79.3744 14.17553969847851"}}, "geometry": {"type": "Point", "coordinates": [1.0101334620283506, 51.71609629010967]}}, {"type": "Feature", "properties": {"norad_id": 34615, "name": "COSMOS 2251 DEB", "group": "cosmos-2251-debris", "lat": 73.977683517802, "lon": 23.056053060768743, "alt_km": 1129.0266765089318, "timestamp": "2025-12-15T04:01:20.846770+00:00", "meta": {"OBJECT_NAME": "COSMOS 2251 DEB", "OBJECT_ID": "1993-036WL", "EPOCH": "2025-12-11T15:13:30.717120", "MEAN_MOTION": 13.52202046, "ECCENTRICITY": 0.04013404, "INCLINATION": 74.005, "RA_OF_ASC_NODE": 295.914, "ARG_OF_PERICENTER": 203.3816, "MEAN_ANOMALY": 338.769, "EPHEMERIS_TYPE": 0, "CLASSIFICATION_TYPE": "U", "NORAD_CAT_ID": 34615, "ELEMENT_SET_NO": 999, "REV_AT_EPOCH": 82800, "BSTAR": 0.00021166372, "MEAN_MOTION_DOT": 2.1e-06, "MEAN_MOTION_DDOT": 0}, "tle": {"line1": "1 34615U 93036WL  25345.63438330  .00000210  00000+0  21166-3 0  9990", "line2": "2 34615  74.0050 295.9140 0401340 203.3816 338.7690 13.52202046828001"}}, "geometry": {"type": "Point", "coordinates": [23.056053060768743, 73.977683517802]}}, {"type": "Feature", "properties": {"norad_id": 34619, "name": "COSMOS 2251 DEB", "group": "cosmos-2251-debris", "lat": -73.2548292025908, "lon": 87.2450056005042, "alt_km": 624.2812803643264, "timestamp": "2025-12-15T04:01:20.846780+00:00", "meta": {"OBJECT_NAME": "COSMOS 2251 DEB", "OBJECT_ID": "1993-036WQ", "EPOCH": "2025-12-14T07:08:19.415616", "MEAN_MOTION": 14.64650904, "ECCENTRICITY": 0.00947403, "INCLINATION": 74.0442, "RA_OF_ASC_NODE": 196.9458, "ARG_OF_PERICENTER": 291.4475, "MEAN_ANOMALY": 67.6609, "EPHEMERIS_TYPE": 0, "CLASSIFICATION_TYPE": "U", "NORAD_CAT_ID": 34619, "ELEMENT_SET_NO": 999, "REV_AT_EPOCH": 89321, "BSTAR": 0.00026032508, "MEAN_MOTION_DOT": 1.443e-05, "MEAN_MOTION_DDOT": 0}, "tle": {"line1": "1 34619U 93036WQ  25348.29744694  .00001443  00000+0  26033-3 0  9999", "line2": "2 34619  74.0442 196.9458 0094740 291.4475  67.6609 14.64650904893210"}}, "geometry": {"type": "Point", "coordinates": [87.2450056005042, -73.2548292025908]}}, {"type": "Feature", "properties": {"norad_id": 34620, "name": "COSMOS 2251 DEB", "group": "cosmos-2251-debris", "lat": 8.068108981747486, "lon": -142.69309498815167, "alt_km": 756.1877761062369, "timestamp": "2025-12-15T04:01:20.846790+00:00", "meta": {"OBJECT_NAME": "COSMOS 2251 DEB", "OBJECT_ID": "1993-036WR", "EPOCH": "2025-12-14T01:28:27.592608", "MEAN_MOTION": 14.49134055, "ECCENTRICITY": 0.00806235, "INCLINATION": 74.0514, "RA_OF_ASC_NODE": 217.0555, "ARG_OF_PERICENTER": 253.1719, "MEAN_ANOMALY": 106.0587, "EPHEMERIS_TYPE": 0, "CLASSIFICATION_TYPE": "U", "NORAD_CAT_ID": 34620, "ELEMENT_SET_NO": 999, "REV_AT_EPOCH": 86846, "BSTAR": 0.002224004, "MEAN_MOTION_DOT": 8.797e-05, "MEAN_MOTION_DDOT": 0}, "tle": {"line1": "1 34620U 93036WR  25348.06143047  .00008797  00000+0  22240-2 0  9995", "line2": "2 34620  74.0514 217.0555 0080623 253.1719 106.0587 14.49134055868465"}}, "geometry": {"type": "Point", "coordinates": [-142.69309498815167, 8.068108981747486]}}, {"type": "Feature", "properties": {"norad_id": 34622, "name": "COSMOS 2251 DEB", "group": "cosmos-2251-debris", "lat": 47.60122024880049, "lon": 104.3936001644017, "alt_km": 832.7995668001377, "timestamp": "2025-12-15T04:01:20.846806+00:00", "meta": {"OBJECT_NAME": "COSMOS 2251 DEB", "OBJECT_ID": "1993-036WT", "EPOCH": "2025-12-14T03:50:06.026208", "MEAN_MOTION": 14.22053181, "ECCENTRICITY": 0.01044456, "INCLINATION": 74.042, "RA_OF_ASC_NODE": 304.4636, "ARG_OF_PERICENTER": 26.5823, "MEAN_ANOMALY": 344.6725, "EPHEMERIS_TYPE": 0, "CLASSIFICATION_TYPE": "U", "NORAD_CAT_ID": 34622, "ELEMENT_SET_NO": 999, "REV_AT_EPOCH": 86480, "BSTAR": 0.001103568, "MEAN_MOTION_DOT": 2.556e-05, "MEAN_MOTION_DDOT": 0}, "tle": {"line1": "1 34622U 93036WT  25348.15979197  .00002556  00000+0  11036-2 0  9998", "line2": "2 34622  74.0420 304.4636 0104445  26.5823 344.6725 14.22053181864800"}}, "geometry": {"type": "Point", "coordinates": [104.3936001644017, 47.60122024880049]}}, {"type": "Feature", "properties": {"norad_id": 34626, "name": "COSMOS 2251 DEB", "group": "cosmos-2251-debris", "lat": 29.813935041510753, "lon": -31.392285231736185, "alt_km": 634.0552641918111, "timestamp": "2025-12-15T04:01:20.846816+00:00", "meta": {"OBJECT_NAME": "COSMOS 2251 DEB", "OBJECT_ID": "1993-036WX", "EPOCH": "2025-12-14T07:11:44.073024", "MEAN_MOTION": 14.72223488, "ECCENTRICITY": 0.00266203, "INCLINATION": 74.0481, "RA_OF_ASC_NODE": 320.8607, "ARG_OF_PERICENTER": 48.6344, "MEAN_ANOMALY": 65.3013, "EPHEMERIS_TYPE": 0, "CLASSIFICATION_TYPE": "U", "NORAD_CAT_ID": 34626, "ELEMENT_SET_NO": 999, "REV_AT_EPOCH": 89167, "BSTAR": 0.0011888924, "MEAN_MOTION_DOT": 7.519e-05, "MEAN_MOTION_DDOT": 0}, "tle": {"line1": "1 34626U 93036WX  25348.29981566  .00007519  00000+0  11889-2 0  9990", "line2": "2 34626  74.0481 320.8607 0026620  48.6344  65.3013 14.72223488891678"}}, "geometry": {"type": "Point", "coordinates": [-31.392285231736185, 29.813935041510753]}}, {"type": "Feature", "properties": {"norad_id": 34634, "name": "COSMOS 2251 DEB", "group": "cosmos-2251-debris", "lat": 49.72590434537785, "lon": 50.10049668135908, "alt_km": 699.2113818065136, "timestamp": "2025-12-15T04:01:20.846826+00:00", "meta": {"OBJECT_NAME": "COSMOS 2251 DEB", "OBJECT_ID": "1993-036XF", "EPOCH": "2025-12-13T14:33:11.452320", "MEAN_MOTION": 14.55662482, "ECCENTRICITY": 0.00440986, "INCLINATION": 74.0531, "RA_OF_ASC_NODE": 33.3321, "ARG_OF_PERICENTER": 140.4838, "MEAN_ANOMALY": 14.546, "EPHEMERIS_TYPE": 0, "CLASSIFICATION_TYPE": "U", "NORAD_CAT_ID": 34634, "ELEMENT_SET_NO": 999, "REV_AT_EPOCH": 88794, "BSTAR": 0.00044657172, "MEAN_MOTION_DOT": 1.948e-05, "MEAN_MOTION_DDOT": 0}, "tle": {"line1": "1 34634U 93036XF  25347.60638255  .00001948  00000+0  44657-3 0  9997", "line2": "2 34634  74.0531  33.3321 0044098 140.4838  14.5460 14.55662482887949"}}, "geometry": {"type": "Point", "coordinates": [50.10049668135908, 49.72590434537785]}}]}